GSAT-12                 
1 37746U 11034A   21236.54101896  .00000106  00000-0  00000-0 0  9991
2 37746   0.6339  96.1682 0010436   7.5574 112.0145  1.00273513 25872
SES-3                   
1 37748U 11035A   21236.59723639 -.00000120  00000-0  00000-0 0  9991
2 37748   0.0630 294.7548 0002829 216.8161 293.5042  1.00273459 36976
KAZSAT-2                
1 37749U 11035B   21236.54869413 -.00000216  00000-0  00000-0 0  9994
2 37749   0.0184 135.5031 0001585  48.7972  72.7770  1.00272250 35769
BEIDOU 9                
1 37763U 11038A   21236.33410532 -.00000084  00000-0  00000-0 0  9997
2 37763  54.4696 181.4151 0084401 226.8209 136.3314  1.00252114 37028
ASTRA 1N                
1 37775U 11041A   21236.65875000  .00000102  00000-0  00000+0 0  9993
2 37775   0.0540 319.1834 0003222 150.6325 119.6716  1.00274862 36774
BSAT-3C (JCSAT-110R)    
1 37776U 11041B   21236.58676899 -.00000369  00000-0  00000-0 0  9998
2 37776   0.0119 273.4413 0000813 340.0262  40.7968  1.00268490 32858
PAKSAT-1R               
1 37779U 11042A   21236.53901293  .00000135  00000-0  00000-0 0  9996
2 37779   0.0411 293.1114 0002783 147.8540 124.1001  1.00270486 36850
CHINASAT 1A (ZX 1A)     
1 37804U 11047A   21236.59788935 -.00000357  00000-0  00000-0 0  9999
2 37804   0.0401 291.4063 0001263 324.7945  61.9071  1.00267135  9738
SES-2                   
1 37809U 11049A   21236.51406854 -.00000214  00000-0  00000-0 0  9997
2 37809   0.0212 259.1439 0003087 257.9836 273.9434  1.00269660 36332
ARABSAT-5C              
1 37810U 11049B   21236.53543698  .00000105  00000-0  00000-0 0  9997
2 37810   0.0639 344.9688 0006806 183.4352  17.3909  1.00274081 36435
EUTELSAT 7 WEST A       
1 37816U 11051A   21236.38643619 -.00000079  00000-0  00000-0 0  9994
2 37816   0.0712  38.9377 0005005 124.9523 300.7859  1.00271857 36271
QUETZSAT 1              
1 37826U 11054A   21236.51607456 -.00000259  00000-0  00000-0 0  9992
2 37826   0.0130 264.4351 0003070 253.7949 283.5631  1.00269062 32263
INTELSAT 18 (IS-18)     
1 37834U 11056A   21236.61919383  .00000035  00000-0  00000-0 0  9990
2 37834   0.0184  47.3996 0002140 105.2804 223.3249  1.00271646 36185
EUTELSAT 16A            
1 37836U 11057A   21236.53465203  .00000086  00000-0  00000-0 0  9997
2 37836   0.0701 347.8238 0004704 170.5733  23.0998  1.00273767 28344
VIASAT-1                
1 37843U 11059A   21236.58690897 -.00000041  00000-0  00000-0 0  9993
2 37843   0.0045 102.0272 0002721  52.7028 274.5084  1.00270920 29693
ASIASAT 7               
1 37933U 11069A   21236.33715795 -.00000352  00000-0  00000-0 0  9997
2 37933   0.0290 243.4365 0001983 236.2527  79.9838  1.00268857 35833
BEIDOU 10               
1 37948U 11073A   21236.08330766 -.00000140  00000-0  00000-0 0  9996
2 37948  50.8457 292.8207 0078346 216.4080 309.6358  1.00278237 35777
LUCH 5A                 
1 37951U 11074B   21236.55882750 -.00000064  00000-0  00000-0 0  9993
2 37951   4.2786 103.8422 0004907  14.8500 222.5045  1.00273513 35563
NIGCOMSAT 1R            
1 38014U 11077A   21236.53988510  .00000126  00000-0  00000-0 0  9994
2 38014   0.0136 280.5062 0001908 196.1741  93.2072  1.00273248 35332
FENGYUN 2F              
1 38049U 12002A   21236.55375278 -.00000375  00000-0  00000-0 0  9991
2 38049   3.0725  81.7667 0001733  32.0242 170.7983  1.00273691 35265
WGS F4 (USA 233)        
1 38070U 12003A   21236.60537479 -.00000233  00000-0  00000-0 0  9998
2 38070   0.0100 132.0565 0000677  37.8573 109.5193  1.00269606 26529
SES-4                   
1 38087U 12007A   21236.38347078 -.00000187  00000-0  00000-0 0  9997
2 38087   0.0109  39.1545 0002538 123.8750 285.8925  1.00270109 34612
BEIDOU 11               
1 38091U 12008A   21236.60423470  .00000040  00000-0  00000-0 0  9996
2 38091   1.6946  69.4070 0005741 342.4420 197.4231  1.00271881 34856
MUOS-1                  
1 38093U 12009A   21236.59965953 -.00000144  00000-0  00000-0 0  9990
2 38093   2.6620  23.0335 0052314   2.7731  63.2085  1.00272753 34820
INTELSAT 22 (IS-22)     
1 38098U 12011A   21236.54581594 -.00000077  00000-0  00000-0 0  9993
2 38098   0.0166 109.4556 0002718  50.0261  82.1426  1.00271880 34192
APSTAR 7                
1 38107U 12013A   21236.54668811 -.00000120  00000-0  00000-0 0  9993
2 38107   0.0148 153.3784 0002433 355.7657  97.1870  1.00271308 34185
YAHSAT 1B               
1 38245U 12016A   21236.54093172  .00000108  00000-0  00000-0 0  9996
2 38245   0.0119 115.7995 0001436   6.3745  93.1819  1.00272166 27972
AEHF-2 (USA 235)        
1 38254U 12019A   21236.51790613 -.00000292  00000-0  00000-0 0  9995
2 38254   2.7475  57.5801 0008168  71.7281 322.6264  1.00270943 33236
JCSAT-13                
1 38331U 12023A   21236.59841017 -.00000375  00000-0  00000-0 0  9991
2 38331   0.0421 279.6950 0002665 236.4974 156.3138  1.00271883 33901
VINASAT-2               
1 38332U 12023B   21236.48589708 -.00000348  00000-0  00000-0 0  9996
2 38332   0.0154 248.1083 0001991 272.4631 119.1773  1.00268675 29030
NIMIQ 6                 
1 38342U 12026A   21236.36969031 -.00000192  00000-0  00000-0 0  9995
2 38342   0.0550 291.2886 0002473 220.5171 223.0180  1.00271136 32790
CHINASAT 2A (ZX 2A)     
1 38352U 12028A   21236.55096181 -.00000312  00000-0  00000-0 0  9990
2 38352   0.0357 260.4359 0000433 144.9160 224.2580  1.00275500 33753
INTELSAT 19 (IS-19)     
1 38356U 12030A   21236.53263909 -.00000076  00000-0  00000-0 0  9996
2 38356   0.0173 156.7384 0003409   7.6138 166.4189  1.00268329 32813
ECHOSTAR 17             
1 38551U 12035A   21236.41572546 -.00000094  00000-0  00000-0 0  9995
2 38551   0.0047 158.1339 0002070 358.2831 219.0371  1.00271768 33432
METEOSAT-10 (MSG-3)     
1 38552U 12035B   21236.31796997  .00000042  00000-0  00000-0 0  9995
2 38552   1.2258  17.4383 0001386 174.5097 264.7919  1.00264999 33239
SES-5                   
1 38652U 12036A   21236.31709779  .00000015  00000-0  00000-0 0  9999
2 38652   0.0557 299.2024 0002249 210.3837 302.3447  1.00271466 26875
TIANLIAN 1-03           
1 38730U 12040A   21236.53552420  .00000107  00000-0  00000+0 0  9995
2 38730   1.2709  95.4591 0004409 350.8426  99.8524  1.00271244 33363
INTELSAT 20 (IS-20)     
1 38740U 12043A   21236.54503097 -.00000043  00000-0  00000-0 0  9997
2 38740   0.0203 129.2190 0001867  44.9677  63.5438  1.00272136 33122
HYLAS 2                 
1 38741U 12043B   21236.53761743  .00000136  00000-0  00000-0 0  9993
2 38741   0.0613 283.7560 0001987 227.0782  46.7727  1.00274643 33140
INTELSAT 21 (IS-21)     
1 38749U 12045A   21236.51982494 -.00000303  00000-0  00000-0 0  9996
2 38749   0.0101 132.0339 0002476  28.1979 301.9060  1.00271163 32916
ASTRA 2F                
1 38778U 12051A   21236.30049403  .00000131  00000-0  00000-0 0  9994
2 38778   0.0838 247.9459 0003753 306.2261 274.9603  1.00273022 23487
GSAT-10                 
1 38779U 12051B   21236.54799639 -.00000183  00000-0  00000-0 0  9992
2 38779   0.0972 274.8543 0001382 250.4034  88.0506  1.00270424 32483
INTELSAT 23 (IS-23)     
1 38867U 12057A   21236.52087156 -.00000303  00000-0  00000-0 0  9992
2 38867   0.0524 275.1275 0001980 240.5630 311.8063  1.00272932 32319
BEIDOU 16               
1 38953U 12059A   21236.55633222 -.00000194  00000-0  00000-0 0  9992
2 38953   1.2574  83.9292 0010520 298.8494 234.6361  1.00270881 32427
LUCH 5B                 
1 38977U 12061A   21236.38460461 -.00000151  00000-0  00000-0 0  9998
2 38977   6.6523  64.7511 0004773  64.8039 325.4665  1.00271921 32552
YAMAL 300K              
1 38978U 12061B   21236.45884308  .00000052  00000-0  00000-0 0  9996
2 38978   0.0263 118.6632 0000242 138.3008  64.1012  1.00270024 32012
STAR ONE C3             
1 38991U 12062A   21236.44464292 -.00000267  00000-0  00000-0 0  9996
2 38991   0.0187 136.8331 0002484  41.2497 239.9270  1.00268136 32136
EUTELSAT 21B            
1 38992U 12062B   21236.53569863  .00000112  00000-0  00000-0 0  9995
2 38992   0.0703 348.0704 0002349 168.1656  31.2388  1.00274489 32218
ECHOSTAR 16             
1 39008U 16039B   21236.51912720 -.00000300  00000-0  00000-0 0  9994
2 39008   0.0133 113.0854 0002123  48.3751 296.9238  1.00271221 32007
CHINASAT 12 (ZX 12)     
1 39017U 12067A   21236.60537567 -.00000225  00000-0  00000-0 0  9999
2 39017   0.0168 163.3001 0003234 353.5322 121.6791  1.00270597 31884
EUTELSAT 70B            
1 39020U 12069A   21236.54546706 -.00000062  00000-0  00000-0 0  9992
2 39020   0.0708 338.9607 0005821 205.7773  55.1542  1.00274262 31880
YAMAL 402               
1 39022U 12070A   21236.54232721  .00000067  00000-0  00000-0 0  9999
2 39022   0.0165 162.5154 0002687 356.3308  64.3045  1.00272586 31978
SKYNET 5D               
1 39034U 12075A   21236.29493972  .00000080  00000-0  00000-0 0  9991
2 39034   0.0745  17.5649 0003811 146.5638 327.5721  1.00273604 31548
MEXSAT 3                
1 39035U 12075B   21236.58690903 -.00000043  00000-0  00000-0 0  9997
2 39035   0.0208 105.2832 0002211  57.8613 266.3977  1.00272582 31550
TDRS 11                 
1 39070U 13004A   21236.58729858  .00000063  00000-0  00000-0 0  9992
2 39070   3.2475 338.7565 0005180  88.2761 303.0678  1.00268977 29070
AMAZONAS 3              
1 39078U 13006A   21236.37570836 -.00000301  00000-0  00000-0 0  9995
2 39078   0.0609 257.1804 0004173 294.0168 215.9119  1.00269202 27274
AZERSPACE 1             
1 39079U 13006B   21236.54058285  .00000115  00000-0  00000-0 0  9996
2 39079   0.0438 282.0517 0001942 255.0179  36.5431  1.00272303 31188
SBIRS GEO-2 (USA 241)   
1 39120U 13011A   21236.53552420  .00000104  00000-0  00000-0 0  9996
2 39120   1.8689   4.9364 0002219 147.6285  33.9489  1.00272337 30916
EUTELSAT 117 WEST A     
1 39122U 13012A   21236.58584090 -.00000031  00000-0  00000-0 0  9992
2 39122   0.0152 356.0194 0002988 162.6167 268.5337  1.00273072 30819
